ORBCOMM FM05            
1 25117U 97084F   24239.60794668  .00003535  00000+0  10779-2 0  9991
2 25117  45.0163 340.0944 0004020 213.5331 146.5265 14.43439613398002
ORBCOMM FM06            
1 25118U 97084G   24240.00926498  .00004622  00000+0  13933-2 0  9999
2 25118  45.0157 338.2707 0003616 228.1132 303.7006 14.43543759399001
ORBCOMM FM07            
1 25119U 97084H   24239.55934992  .00003819  00000+0  11611-2 0  9994
2 25119  45.0152 341.0331 0004371 202.7134 157.3524 14.43440630398923
ORBCOMM FM03            
1 25158U 98007B   24239.76559099  .00003002  00000+0  11352-2 0  9993
2 25158 107.9738 251.4310 0045632  41.6723 318.7878 14.32730348381848
ORBCOMM FM04            
1 25159U 98007C   24240.50182137  .00002949  00000+0  11125-2 0  9990
2 25159 107.9722 255.9545 0041240  37.7686 322.6335 14.33000992382238
ORBCOMM FM17            
1 25413U 98046A   24240.22279389  .00002524  00000+0  95365-3 0  9999
2 25413  44.9928 203.5957 0001542 242.0960 117.9730 14.33583745361134
ORBCOMM FM18            
1 25414U 98046B   24240.41979324  .00002936  00000+0  10384-2 0  9991
2 25414  44.9929 127.3870 0003468 246.4116 113.6368 14.36516368362145
ORBCOMM FM19            
1 25415U 98046C   24239.98397584  .00003258  00000+0  11511-2 0  9995
2 25415  44.9938 131.0074 0002231 237.8040 136.4776 14.36345927362070
